NORAD_CAT_ID,OBJECT_NAME,OBJECT_TYPE,EPOCH,MEAN_MOTION,ECCENTRICITY,INCLINATION,RA_OF_ASC_NODE,ARG_OF_PERICENTER,MEAN_ANOMALY,BSTAR,MEAN_MOTION_DOT,MEAN_MOTION_DDOT,TLE_LINE0,TLE_LINE1,TLE_LINE2,SEMIMAJOR_AXIS,PERIOD,APOGEE,PERIGEE,DECAYED
52102.0,STARLINK-3709,PAYLOAD,2023-11-21 06:28:41,15.08860922,0.0001529,53.2163,247.4247,93.2131,266.9036,0.00025851,3.831e-05,0.0,0 STARLINK-3709,1 52102U 22029Q   23325.26992430  .00003831  00000-0  25851-3 0  9994,2 52102  53.2163 247.4247 0001529  93.2131 266.9036 15.08860922 94060,6917.816,95.436,540.739,538.624,0.0
52102.0,STARLINK-3709,PAYLOAD,2023-11-21 19:11:47,15.08838529,0.0001379,53.2163,245.046,96.3396,263.7753,5.0108e-06,-2.08e-06,0.0,0 STARLINK-3709,1 52102U 22029Q   23325.79985632 -.00000208  00000-0  50108-5 0  9999,2 52102  53.2163 245.0460 0001379  96.3396 263.7753 15.08838529 94149,6917.885,95.438,540.704,538.796,0.0
52102.0,STARLINK-3709,PAYLOAD,2023-11-21 20:47:10,15.08842965,0.0001402,53.216,244.7487,96.7444,263.3708,6.8295e-05,7.99e-06,0.0,0 STARLINK-3709,1 52102U 22029Q   23325.86609352  .00000799  00000-0  68295-4 0  9998,2 52102  53.2160 244.7487 0001402  96.7444 263.3708 15.08842965 94152,6917.871,95.437,540.706,538.766,0.0
52102.0,STARLINK-3709,PAYLOAD,2023-11-22 03:08:42,15.08860214,0.0001302,53.216,243.5592,94.4216,265.6925,0.00072742,0.00011314,0.0,0 STARLINK-3709,1 52102U 22029Q   23326.13104920  .00011314  00000-0  72742-3 0  9996,2 52102  53.2160 243.5592 0001302  94.4216 265.6925 15.08860214 94194,6917.819,95.436,540.584,538.783,0.0
52102.0,STARLINK-3709,PAYLOAD,2023-11-22 06:19:28,15.08869413,0.0001297,53.2161,242.9648,95.4953,264.6187,0.0013939,0.00021983,0.0,0 STARLINK-3709,1 52102U 22029Q   23326.26352760  .00021983  00000-0  13939-2 0  9992,2 52102  53.2161 242.9648 0001297  95.4953 264.6187 15.08869413 94214,6917.79,95.436,540.553,538.758,0.0
52102.0,STARLINK-3709,PAYLOAD,2023-11-22 19:02:34,15.08847056,0.0001396,53.2162,240.5856,94.0379,266.0773,0.0010289,0.00016128,0.0,0 STARLINK-3709,1 52102U 22029Q   23326.79345510  .00016128  00000-0  10289-2 0  9995,2 52102  53.2162 240.5856 0001396  94.0379 266.0773 15.08847056 94291,6917.859,95.437,540.69,538.758,0.0
52102.0,STARLINK-3709,PAYLOAD,2023-11-22 20:37:57,15.08844091,0.000139,53.2163,240.2884,94.5887,265.5264,0.0011407,0.00017915,0.0,0 STARLINK-3709,1 52102U 22029Q   23326.85969591  .00017915  00000-0  11407-2 0  9991,2 52102  53.2163 240.2884 0001390  94.5887 265.5264 15.08844091 94300,6917.868,95.437,540.694,538.771,0.0
52102.0,STARLINK-3709,PAYLOAD,2023-11-23 04:34:53,15.08862012,0.0001201,53.2162,238.8018,77.51,282.6026,0.0020201,0.00032028,0.0,0 STARLINK-3709,1 52102U 22029Q   23327.19089303  .00032028  00000-0  20201-2 0  9997,2 52102  53.2162 238.8018 0001201  77.5100 282.6026 15.08862012 94355,6917.813,95.436,540.509,538.847,0.0
52102.0,STARLINK-3709,PAYLOAD,2023-11-23 18:53:22,15.08837046,0.0001087,53.2162,236.1256,99.2556,260.8559,0.0010664,0.00016723,0.0,0 STARLINK-3709,1 52102U 22029Q   23327.78706195  .00016723  00000-0  10664-2 0  9993,2 52102  53.2162 236.1256 0001087  99.2556 260.8559 15.08837046 94446,6917.889,95.438,540.506,539.002,0.0
52102.0,STARLINK-3709,PAYLOAD,2023-11-23 22:04:08,15.08841142,0.0001189,53.2162,235.5311,99.1218,260.9909,0.0013958,0.00021997,0.0,0 STARLINK-3709,1 52102U 22029Q   23327.91954260  .00021997  00000-0  13958-2 0  9994,2 52102  53.2162 235.5311 0001189  99.1218 260.9909 15.08841142 94462,6917.877,95.437,540.564,538.919,0.0
52102.0,STARLINK-3709,PAYLOAD,2023-11-24 02:50:17,15.088449,0.0001202,53.2161,234.6387,99.786,260.3268,0.0013911,0.00021924,0.0,0 STARLINK-3709,1 52102U 22029Q   23328.11826274  .00021924  00000-0  13911-2 0  9999,2 52102  53.2161 234.6387 0001202  99.7860 260.3268 15.08844900 94499,6917.865,95.437,540.562,538.899,0.0
52102.0,STARLINK-3709,PAYLOAD,2023-11-24 17:08:46,15.08851272,0.0001323,53.2161,231.9623,98.663,261.4512,0.0013804,0.00021756,0.0,0 STARLINK-3709,1 52102U 22029Q   23328.71442589  .00021756  00000-0  13804-2 0  9992,2 52102  53.2161 231.9623 0001323  98.6630 261.4512 15.08851272 94583,6917.846,95.437,540.626,538.796,0.0
52102.0,STARLINK-3709,PAYLOAD,2023-11-24 21:54:55,15.08851166,0.0001018,53.2158,231.0703,138.4606,221.6463,0.0015493,0.00024463,0.0,0 STARLINK-3709,1 52102U 22029Q   23328.91314407  .00024463  00000-0  15493-2 0  9995,2 52102  53.2158 231.0703 0001018 138.4606 221.6463 15.08851166 94615,6917.846,95.437,540.415,539.007,0.0
52102.0,STARLINK-3709,PAYLOAD,2023-11-25 01:05:42,15.08851578,0.0001309,53.2156,230.4755,93.241,266.8732,0.0010869,0.00017058,0.0,0 STARLINK-3709,1 52102U 22029Q   23329.04562534  .00017058  00000-0  10869-2 0  9990,2 52102  53.2156 230.4755 0001309  93.2410 266.8732 15.08851578 94636,6917.845,95.437,540.616,538.804,0.0
52102.0,STARLINK-3709,PAYLOAD,2023-11-25 21:45:42,15.08868,0.0001287,53.2155,226.6102,90.9317,269.1822,0.00098956,0.00015508,0.0,0 STARLINK-3709,1 52102U 22029Q   23329.90673755  .00015508  00000-0  98956-3 0  9995,2 52102  53.2155 226.6102 0001287  90.9317 269.1822 15.08868000 94761,6917.795,95.436,540.55,538.769,0.0
52102.0,STARLINK-3709,PAYLOAD,2023-11-26 02:31:50,15.08901947,0.0001462,53.216,225.7165,82.9537,277.1621,0.0022714,0.00036108,0.0,0 STARLINK-3709,1 52102U 22029Q   23330.10544999  .00036108  00000-0  22714-2 0  9993,2 52102  53.2160 225.7165 0001462  82.9537 277.1621 15.08901947 94793,6917.691,95.434,540.567,538.545,0.0
52102.0,STARLINK-3709,PAYLOAD,2023-11-26 16:50:20,15.08803613,9.96e-05,53.2156,223.0425,104.5735,255.5367,-0.00030552,-5.142e-05,0.0,0 STARLINK-3709,1 52102U 22029Q   23330.70163050 -.00005142  00000-0 -30552-3 0  9990,2 52102  53.2156 223.0425 0000996 104.5735 255.5367 15.08803613 94888,6917.992,95.44,540.546,539.168,0.0
52102.0,STARLINK-3709,PAYLOAD,2023-11-26 21:36:31,15.0878535,0.000147,53.2165,222.1491,76.3689,283.7467,-0.0011975,-0.00019267,0.0,0 STARLINK-3709,1 52102U 22029Q   23330.90036120 -.00019267  00000-0 -11975-2 0  9999,2 52102  53.2165 222.1491 0001470  76.3689 283.7467 15.08785350 94918,6918.047,95.441,540.929,538.895,0.0
52102.0,STARLINK-3709,PAYLOAD,2023-11-26 23:11:54,15.08787279,0.0001387,53.2158,221.8528,80.011,280.1038,-0.0010759,-0.00017345,0.0,0 STARLINK-3709,1 52102U 22029Q   23330.96660475 -.00017345  00000-0 -10759-2 0  9995,2 52102  53.2158 221.8528 0001387  80.0110 280.1038 15.08787279 94923,6918.042,95.441,540.866,538.947,0.0
52102.0,STARLINK-3709,PAYLOAD,2023-11-27 16:41:09,15.08818276,0.0001333,53.2165,218.5779,114.8516,245.2615,0.00060566,9.359e-05,0.0,0 STARLINK-3709,1 52102U 22029Q   23331.69524985  .00009359  00000-0  60566-3 0  9997,2 52102  53.2165 218.5779 0001333 114.8516 245.2615 15.08818276 95037,6917.947,95.439,540.734,538.89,0.0
52102.0,STARLINK-3709,PAYLOAD,2023-11-27 21:27:19,15.08853754,0.0001678,53.2163,217.6862,127.6841,232.4303,0.0025441,0.00040449,0.0,0 STARLINK-3709,1 52102U 22029Q   23331.89397245  .00040449  00000-0  25441-2 0  9993,2 52102  53.2163 217.6862 0001678 127.6841 232.4303 15.08853754 95068,6917.838,95.437,540.864,538.543,0.0
52102.0,STARLINK-3709,PAYLOAD,2023-11-27 23:02:42,15.08862853,0.0001419,53.2164,217.3899,120.0226,240.0907,0.0020546,0.00032583,0.0,0 STARLINK-3709,1 52102U 22029Q   23331.96021019  .00032583  00000-0  20546-2 0  9995,2 52102  53.2164 217.3899 0001419 120.0226 240.0907 15.08862853 95079,6917.811,95.436,540.657,538.694,0.0
52102.0,STARLINK-3709,PAYLOAD,2023-11-28 19:42:41,15.0887885,0.0001027,53.2158,213.5233,117.9767,242.1329,0.00022927,3.367e-05,0.0,0 STARLINK-3709,1 52102U 22029Q   23332.82131053  .00003367  00000-0  22927-3 0  9995,2 52102  53.2158 213.5233 0001027 117.9767 242.1329 15.08878850 95202,6917.762,95.435,540.337,538.916,0.0
52102.0,STARLINK-3709,PAYLOAD,2023-11-28 21:18:04,15.08883046,0.000101,53.2156,213.2248,119.2818,240.8276,0.00033533,5.059e-05,0.0,0 STARLINK-3709,1 52102U 22029Q   23332.88754816  .00005059  00000-0  33533-3 0  9994,2 52102  53.2156 213.2248 0001010 119.2818 240.8276 15.08883046 95217,6917.749,95.435,540.313,538.915,0.0
52102.0,STARLINK-3709,PAYLOAD,2023-11-29 19:33:27,15.08857007,0.0001533,53.2154,209.0636,127.0164,233.0969,0.00063186,9.787e-05,0.0,0 STARLINK-3709,1 52102U 22029Q   23333.81490577  .00009787  00000-0  63186-3 0  9998,2 52102  53.2154 209.0636 0001533 127.0164 233.0969 15.08857007 95356,6917.828,95.436,540.754,538.633,0.0
52102.0,STARLINK-3709,PAYLOAD,2023-11-29 22:44:14,15.08850856,0.0001021,53.2156,208.4691,95.2123,264.8986,0.00022342,3.271e-05,0.0,0 STARLINK-3709,1 52102U 22029Q   23333.94738571  .00003271  00000-0  22342-3 0  9992,2 52102  53.2156 208.4691 0001021  95.2123 264.8986 15.08850856 95373,6917.847,95.437,540.419,539.006,0.0
52102.0,STARLINK-3709,PAYLOAD,2023-11-30 19:24:15,15.08830972,0.0001328,53.2159,204.6023,101.3573,258.7568,0.00088035,0.00013747,0.0,0 STARLINK-3709,1 52102U 22029Q   23334.80851414  .00013747  00000-0  88035-3 0  9990,2 52102  53.2159 204.6023 0001328 101.3573 258.7568 15.08830972 95501,6917.908,95.438,540.692,538.854,0.0
52102.0,STARLINK-3709,PAYLOAD,2023-12-01 20:50:25,15.08859381,0.0001344,53.2147,199.8453,101.8167,258.2976,0.00079097,0.00012329,0.0,0 STARLINK-3709,1 52102U 22029Q   23335.86834891  .00012329  00000-0  79097-3 0  9990,2 52102  53.2147 199.8453 0001344 101.8167 258.2976 15.08859381 95662,6917.821,95.436,540.616,538.756,0.0
52102.0,STARLINK-3709,PAYLOAD,2023-12-02 00:01:11,15.08867371,0.0001393,53.215,199.2492,105.8987,254.2159,0.0010089,0.00015817,0.0,0 STARLINK-3709,1 52102U 22029Q   23336.00082607  .00015817  00000-0  10089-2 0  9997,2 52102  53.2150 199.2492 0001393 105.8987 254.2159 15.08867371 95680,6917.797,95.436,540.625,538.698,0.0
52102.0,STARLINK-3709,PAYLOAD,2023-12-02 19:05:48,15.08854693,0.0003648,53.214,195.6728,159.019,201.0952,6.1653e-06,-1.91e-06,0.0,0 STARLINK-3709,1 52102U 22029Q   23336.79569638 -.00000191  00000-0  61653-5 0  9993,2 52102  53.2140 195.6728 0003648 159.0190 201.0952 15.08854693 95801,6917.835,95.437,542.224,537.177,0.0
